      2.10          N: GNSS NAV DATA                        RINEX VERSION / TYPE
fic2rin                                 11/29/2021 00:17:34 PGM / RUN BY / DATE
                                                            END OF HEADER
15 21 11 28 10  0  0.0-1.031681895256e-04 2.842170943040e-12 0.000000000000e+00
    9.700000000000e+01-7.421875000000e+01 5.165215151944e-09-1.565296372168e+00
   -3.732740879059e-06 1.390561962035e-02 8.570030331612e-06 5.153708669662e+03
    3.600000000000e+04 3.501772880554e-07 1.428171949163e+00 5.401670932770e-08
    9.292137615744e-01 1.937812500000e+02 1.058104098969e+00-8.268915862108e-09
   -1.803646557690e-10 1.000000000000e+00 2.186000000000e+03 0.000000000000e+00
    2.400000000000e+00 0.000000000000e+00-1.071020960808e-08 9.700000000000e+01
    2.880000000000e+04 4.000000000000e+00
31 21 11 28 10  0  0.0-1.523825339973e-04-1.932676241267e-12 0.000000000000e+00
    9.800000000000e+01 4.256250000000e+01 4.587691095749e-09 2.317447802866e+00
    2.156943082809e-06 1.041047298349e-02 9.465962648392e-06 5.153654203415e+03
    3.600000000000e+04-2.179294824600e-07 2.622099594642e+00-1.676380634308e-08
    9.556052806356e-01 1.980937500000e+02 3.404936504473e-01-7.994618722245e-09
    1.289339420448e-10 1.000000000000e+00 2.186000000000e+03 0.000000000000e+00
    3.400000000000e+00 0.000000000000e+00-1.303851604462e-08 9.800000000000e+01
    2.880000000000e+04 4.000000000000e+00
30 21 11 28 10  0  0.0-4.950426518917e-04-3.069544618484e-12 0.000000000000e+00
    9.800000000000e+01 4.828125000000e+01 5.113427280485e-09 2.729454015093e+00
    2.427026629448e-06 5.339812138118e-03 9.128823876381e-06 5.153611911774e+03
    3.600000000000e+04-2.980232238770e-08 2.618677453284e+00-2.793967723846e-08
    9.365185445679e-01 1.901562500000e+02-2.747472635172e+00-8.230699984549e-09
    2.196520065306e-10 1.000000000000e+00 2.186000000000e+03 0.000000000000e+00
    2.400000000000e+00 0.000000000000e+00 3.725290298462e-09 9.800000000000e+01
    2.880000000000e+04 4.000000000000e+00
22 21 11 28 10  0  0.0-4.541920498013e-04 8.981260180008e-12 0.000000000000e+00
    1.270000000000e+02-3.206250000000e+01 5.320935924053e-09-1.768342647278e+00
   -1.618638634682e-06 6.766572128981e-03 4.535540938377e-06 5.153670104980e+03
    3.600000000000e+04-2.160668373108e-07 3.972903857221e-01 1.862645149231e-09
    9.375062322462e-01 2.788750000000e+02-8.727066240996e-01-8.607144236391e-09
    5.785955293977e-11 1.000000000000e+00 2.186000000000e+03 0.000000000000e+00
    2.400000000000e+00 0.000000000000e+00-1.769512891769e-08 1.270000000000e+02
    2.880000000000e+04 4.000000000000e+00
19 21 11 28 10  0  0.0 8.511915802956e-05 5.002220859751e-12 0.000000000000e+00
    1.010000000000e+02 8.218750000000e+00 3.988380417768e-09 1.747410513199e+00
    3.464519977570e-07 8.937948849052e-03 9.180977940559e-06 5.153671892166e+03
    3.600000000000e+04 1.788139343262e-07-1.484747134272e+00-5.029141902924e-08
    9.791023226503e-01 2.104687500000e+02 1.978454666030e+00-7.731750629877e-09
   -2.078658013021e-10 1.000000000000e+00 2.186000000000e+03 0.000000000000e+00
    2.400000000000e+00 0.000000000000e+00-1.583248376846e-08 1.010000000000e+02
    2.880000000000e+04 4.000000000000e+00
20 21 11 28 10  0  0.0 5.179019644856e-04-2.273736754432e-13 0.000000000000e+00
    1.800000000000e+02-3.178125000000e+01 5.350580015992e-09-1.743541482553e+00
   -1.529231667519e-06 5.459893029183e-03 4.177913069725e-06 5.153693378448e+03
    3.600000000000e+04-1.862645149231e-09 3.513700601562e-01-1.061707735062e-07
    9.408219316841e-01 2.867187500000e+02 3.045191881996e+00-8.657860634647e-09
    1.367914121971e-10 1.000000000000e+00 2.186000000000e+03 0.000000000000e+00
    2.400000000000e+00 0.000000000000e+00-8.381903171539e-09 1.800000000000e+02
    2.880000000000e+04 4.000000000000e+00
11 21 11 28 10  0  0.0 1.712562516332e-05-2.387423592154e-12 0.000000000000e+00
    1.000000000000e+01 3.703125000000e+01 4.609834875269e-09-4.508538657703e-01
    1.991167664528e-06 3.767578164116e-04 7.040798664093e-06 5.153739583969e+03
    3.600000000000e+04 2.421438694000e-08-4.865247956306e-01 0.000000000000e+00
    9.615018499086e-01 2.445937500000e+02 2.615989126265e+00-8.214985044244e-09
    3.210848030423e-10 1.000000000000e+00 2.186000000000e+03 0.000000000000e+00
    6.144000000000e+03 6.300000000000e+01-8.847564458847e-09 1.000000000000e+01
    2.880000000000e+04 4.000000000000e+00
23 21 11 28 10  0  0.0 2.786889672279e-05-4.320099833421e-12 0.000000000000e+00
    1.800000000000e+02-3.090625000000e+01 4.686266630387e-09 2.860625471870e+00
   -1.566484570503e-06 1.895674387924e-03 4.563480615616e-06 5.153688100815e+03
    3.600000000000e+04-1.862645149231e-08 4.759762697507e-01 5.587935447693e-08
    9.665051848090e-01 2.950625000000e+02 2.813539136227e+00-8.253915237271e-09
    7.571743964957e-11 1.000000000000e+00 2.186000000000e+03 0.000000000000e+00
    2.400000000000e+00 0.000000000000e+00-8.381903171539e-09 6.920000000000e+02
    2.880000000000e+04 4.000000000000e+00
18 21 11 28 10  0  0.0 2.885307185352e-04-6.139089236967e-12 0.000000000000e+00
    1.540000000000e+02 2.896875000000e+01 4.355538568521e-09-2.658022453624e+00
    1.596286892891e-06 2.086092950776e-03 7.823109626770e-06 5.153639869690e+03
    3.600000000000e+04-6.891787052155e-08-5.231318043452e-01-3.725290298462e-08
    9.701989666470e-01 2.367812500000e+02 3.070190087158e+00-8.008190716145e-09
    2.896549224330e-10 1.000000000000e+00 2.186000000000e+03 0.000000000000e+00
    2.400000000000e+00 0.000000000000e+00-8.381903171539e-09 4.100000000000e+02
    2.880000000000e+04 4.000000000000e+00
28 21 11 28 10  0  0.0 4.539685323834e-04-7.617018127348e-12 0.000000000000e+00
    6.100000000000e+01 1.506250000000e+01 4.581976572002e-09-1.700116669941e-01
    7.208436727524e-07 1.728668378200e-02 6.051734089851e-06 5.153704387665e+03
    3.600000000000e+04-3.036111593246e-07-2.545001997846e+00-8.381903171539e-08
    9.706235098623e-01 2.711875000000e+02-1.309080027866e+00-8.404992958836e-09
   -1.128618440060e-10 1.000000000000e+00 2.186000000000e+03 0.000000000000e+00
    4.850000000000e+00 6.300000000000e+01-1.117587089539e-08 6.100000000000e+01
    2.880000000000e+04 4.000000000000e+00
22 21 11 28  9 59 44.0-4.541925154626e-04 8.981260180008e-12 0.000000000000e+00
    1.100000000000e+01-3.206250000000e+01 5.320935924053e-09-1.770676880828e+00
   -1.618638634682e-06 6.766572128981e-03 4.535540938377e-06 5.153670097351e+03
    3.598400000000e+04-2.160668373108e-07 3.972905042185e-01 1.862645149231e-09
    9.375062190799e-01 2.788750000000e+02-8.727060535615e-01-8.607501394126e-09
    5.785955293977e-11 1.000000000000e+00 2.186000000000e+03 0.000000000000e+00
    2.400000000000e+00 0.000000000000e+00-1.769512891769e-08 1.100000000000e+01
    3.159000000000e+04 4.000000000000e+00
31 21 11 28  9 59 44.0-1.523843966424e-04-1.932676241267e-12 0.000000000000e+00
    1.000000000000e+00 4.256250000000e+01 4.587691095749e-09 2.315113664405e+00
    2.156943082809e-06 1.041047088802e-02 9.465962648392e-06 5.153654203415e+03
    3.598400000000e+04-2.179294824600e-07 2.622099724841e+00-1.676380634308e-08
    9.556052835615e-01 1.980937500000e+02 3.404939766780e-01-7.994618722245e-09
    1.289339420448e-10 1.000000000000e+00 2.186000000000e+03 0.000000000000e+00
    2.400000000000e+00 0.000000000000e+00-1.303851604462e-08 1.000000000000e+00
    3.165000000000e+04 4.000000000000e+00
19 21 11 28  9 59 44.0 8.512008935213e-05 5.002220859751e-12 0.000000000000e+00
    6.000000000000e+00 8.218750000000e+00 3.988023260033e-09 1.745076918944e+00
    3.464519977570e-07 8.937943959609e-03 9.182840585709e-06 5.153671892166e+03
    3.598400000000e+04 1.788139343262e-07-1.484746999684e+00-5.029141902924e-08
    9.791023314278e-01 2.104687500000e+02 1.978454494868e+00-7.731750629877e-09
   -2.078658013021e-10 1.000000000000e+00 2.186000000000e+03 0.000000000000e+00
    2.400000000000e+00 0.000000000000e+00-1.583248376846e-08 6.000000000000e+00
    3.168000000000e+04 4.000000000000e+00
 2 21 11 28  9 59 44.0-6.437515839934e-04-1.477928890381e-12 0.000000000000e+00
    1.500000000000e+01 4.318750000000e+01 4.348395413837e-09-2.684257926140e+00
    2.292916178703e-06 2.055429411121e-02 7.441267371178e-06 5.153807512283e+03
    3.598400000000e+04 2.495944499969e-07-6.197118931221e-01 1.769512891769e-07
    9.648103810479e-01 2.325937500000e+02-1.475856027282e+00-7.757465986739e-09
    3.839445642608e-10 1.000000000000e+00 2.186000000000e+03 0.000000000000e+00
    2.400000000000e+00 0.000000000000e+00-1.769512891769e-08 1.500000000000e+01
    3.171000000000e+04 4.000000000000e+00
27 21 11 28  9 59 44.0-2.245977520943e-04-4.547473508865e-12 0.000000000000e+00
    1.400000000000e+01-5.375000000000e+00 4.177674016892e-09-6.537433892077e-01
   -1.806765794754e-07 9.747044998221e-03 7.858499884605e-06 5.153650016785e+03
    3.598400000000e+04 1.303851604462e-07-1.591698081917e+00 1.620501279831e-07
    9.740494431033e-01 2.359687500000e+02 6.275571716809e-01-8.056407010261e-09
   -2.053656971627e-10 1.000000000000e+00 2.186000000000e+03 0.000000000000e+00
    2.400000000000e+00 0.000000000000e+00 1.862645149231e-09 1.400000000000e+01
    3.510000000000e+04 4.000000000000e+00
 1 21 11 28  9 59 44.0 4.986133426428e-04-1.034550223267e-11 0.000000000000e+00
    3.000000000000e+00 3.343750000000e+01 3.959093483564e-09-2.875162443474e+00
    1.601874828339e-06 1.111776195467e-02 7.111579179764e-06 5.153673244476e+03
    3.598400000000e+04 7.636845111847e-08-5.321141125744e-01-1.303851604462e-07
    9.864299871455e-01 2.553125000000e+02 8.854435174309e-01-7.707106746217e-09
    3.128701751558e-10 1.000000000000e+00 2.186000000000e+03 0.000000000000e+00
    2.400000000000e+00 0.000000000000e+00 5.122274160385e-09 3.000000000000e+00
    3.525000000000e+04 4.000000000000e+00
